IRIDIUM 136             
1 42962U 17061H   23314.84354814  .00000827  00000+0  28830-3 0  9998
2 42962  86.3982  61.9825 0001712  92.1439 267.9952 14.34214351318764
